FLOCK 3P-10             
1 41974U 17008AC  17255.56699383  .00006514  00000-0  27941-3 0  9992
2 41974  97.4878 316.6634 0006807 240.7872 119.2684 15.23054984 31646
FLOCK 3P-11             
1 41975U 17008AD  17255.57927400  .00006106  00000-0  26236-3 0  9991
2 41975  97.4876 316.6446 0007067 240.1103 119.9432 15.23025086 31645
FLOCK 3P-60             
1 41976U 17008AE  17255.55517296  .00003591  00000-0  15579-3 0  9991
2 41976  97.4881 316.6802 0006665 242.7480 117.3078 15.22986508 31009
FLOCK 3P-58             
1 41977U 17008AF  17255.57269677  .00004766  00000-0  20608-3 0  9995
2 41977  97.4877 316.6512 0006783 240.7849 119.2709 15.22927406 31836
FLOCK 3P-57             
1 41978U 17008AG  17255.56739187  .00005102  00000-0  22011-3 0  9998
2 41978  97.4877 316.6592 0006871 239.5148 120.5411 15.22970948 31677
FLOCK 3P-75             
1 41979U 17008AH  17255.56579923  .00004771  00000-0  20592-3 0  9992
2 41979  97.4898 316.7262 0007054 243.5996 116.4517 15.22986088 31826
FLOCK 3P-70             
1 41980U 17008AJ  17255.56543025  .00002252  00000-0  98735-4 0  9995
2 41980  97.4900 316.7285 0006980 242.6409 117.4117 15.23020923 31671
FLOCK 3P-73             
1 41981U 17008AK  17255.57233375  .00004299  00000-0  18609-3 0  9995
2 41981  97.4900 316.7202 0007207 244.1458 115.9035 15.22941661 31802
FLOCK 3P-88             
1 41982U 17008AL  17255.56208199  .00001931  00000-0  85056-4 0  9992
2 41982  97.4897 316.7257 0007065 243.4554 116.5959 15.23035569 30778
FLOCK 3P-85             
1 41983U 17008AM  17255.61541276  .00005439  00000-0  23399-3 0  9993
2 41983  97.4900 316.8125 0006920 247.6604 112.3900 15.23034286 31686
FLOCK 3P-79             
1 41984U 17008AN  17255.55067388  .00004358  00000-0  18805-3 0  9999
2 41984  97.4900 316.7454 0006586 247.1875 112.8667 15.23044601 31670
FLOCK 3P-86             
1 41985U 17008AP  17255.55129310  .00005494  00000-0  23645-3 0  9994
2 41985  97.4897 316.7405 0006553 246.3109 113.7440 15.23016718 31663
FLOCK 3P-36             
1 41986U 17008AQ  17255.55412015  .00002329  00000-0  10189-3 0  9995
2 41986  97.4883 316.6851 0006330 242.8955 117.1636 15.23066277 31150
FLOCK 3P-30             
1 41987U 17008AR  17255.54483814  .00002291  00000-0  10031-3 0  9994
2 41987  97.4883 316.6989 0006251 244.7032 115.3557 15.23048954 31628
FLOCK 3P-34             
1 41988U 17008AS  17255.55681893  .00003410  00000-0  14792-3 0  9995
2 41988  97.4878 316.6724 0006469 240.1969 119.8625 15.23026858 31152
FLOCK 3P-35             
1 41989U 17008AT  17255.55922483  .00005284  00000-0  22749-3 0  9991
2 41989  97.4876 316.6685 0006596 240.3195 119.7385 15.23026648 31150
FLOCK 3P-33             
1 41990U 17008AU  17255.55411028  .00003176  00000-0  13802-3 0  9999
2 41990  97.4880 316.6792 0006235 241.3911 118.6699 15.23017474 31156
LEMUR-2-SATCHMO         
1 41991U 17008AV  17255.52618788  .00002560  00000-0  11370-3 0  9993
2 41991  97.4874 316.5598 0006414 245.7304 114.3263 15.22454127 31144
LEMUR-2-MIA-GRACE       
1 41992U 17008AW  17255.56933658  .00003467  00000-0  15161-3 0  9993
2 41992  97.4878 316.6609 0006375 245.7107 114.3463 15.22741629 31159
LEMUR-2-SMITA-SHARAD    
1 41993U 17008AX  17255.57965103  .00002748  00000-0  12127-3 0  9995
2 41993  97.4875 316.6429 0006349 245.3566 114.7009 15.22604238 31157
LEMUR-2-SPIRE-MINIONS   
1 41994U 17008AY  17255.57506358  .00003524  00000-0  15421-3 0  9992
2 41994  97.4876 316.6488 0006450 244.8999 115.1568 15.22701876 31152
LEMUR-2-RDEATON         
1 41995U 17008AZ  17255.57579533  .00002960  00000-0  13029-3 0  9993
2 41995  97.4876 316.6504 0007288 261.8920  98.1489 15.22634680 31830
LEMUR-2-NOGUECORREIG    
1 41996U 17008BA  17255.56389539  .00003472  00000-0  15161-3 0  9996
2 41996  97.4878 316.6686 0007232 262.5995  97.4420 15.22778459 31057
LEMUR-2-JOBANPUTRA      
1 41997U 17008BB  17255.55080325  .00003372  00000-0  14685-3 0  9996
2 41997  97.4879 316.6867 0007192 262.6192  97.4228 15.22899394 31143
LEMUR-2-TACHIKOMA       
1 41998U 17008BC  17255.57684349  .00002631  00000-0  11640-3 0  9990
2 41998  97.4875 316.6479 0007230 263.2498  96.7915 15.22561839 31075
BGUSAT                  
1 41999U 17008BD  17255.54174168  .00003991  00000-0  17246-3 0  9999
2 41999  97.4885 316.7085 0007104 263.5579  96.4848 15.23047655 31140
DIDO-2                  
1 42000U 17008BE  17255.51761981  .00002705  00000-0  11998-3 0  9995
2 42000  97.4877 316.5718 0007232 264.8049  95.2362 15.22448298 31149
FLOCK 3P-49             
1 42001U 17008BF  17255.60630478  .00005702  00000-0  24567-3 0  9998
2 42001  97.4880 316.7647 0006724 263.6972  96.3499 15.22964579 31681
FLOCK 3P-67             
1 42002U 17008BG  17255.54643923  .00007131  00000-0  30626-3 0  9992
2 42002  97.4878 316.6876 0006727 262.2504  97.7969 15.22980188 31839
FLOCK 3P-68             
1 42003U 17008BH  17255.54807842  .00004252  00000-0  18376-3 0  9994
2 42003  97.4877 316.6823 0006804 261.8970  98.1494 15.23004110 31470
FLOCK 3P-41             
1 42004U 17008BJ  17255.60177096  .00003609  00000-0  15629-3 0  9996
2 42004  97.4880 316.7577 0006529 265.2905  94.7586 15.23046821 31684
FLOCK 3P-45             
1 42005U 17008BK  17255.54200001  .00004290  00000-0  18531-3 0  9995
2 42005  97.4879 316.6924 0006622 264.0861  95.9621 15.23020023 31836
FLOCK 3P-48             
1 42006U 17008BL  17255.60525370  .00003717  00000-0  16090-3 0  9993
2 42006  97.4882 316.7648 0006447 265.2223  94.8278 15.23037280 31621
FLOCK 3P-43             
1 42007U 17008BM  17255.53751022  .00003630  00000-0  15734-3 0  9999
2 42007  97.4878 316.6945 0006326 265.2045  94.8469 15.23005364 31837
FLOCK 3P-42             
1 42008U 17008BN  17255.53657973  .00003357  00000-0  14578-3 0  9991
2 42008  97.4876 316.6919 0006416 265.0250  95.0254 15.22997861 31750
FLOCK 3P-61             
1 42009U 17008BP  17255.53511062  .00005752  00000-0  24723-3 0  9994
2 42009  97.4877 316.6972 0006312 267.8590  92.1924 15.23043632 31800
FLOCK 3P-40             
1 42010U 17008BQ  17255.52893998  .00006092  00000-0  26200-3 0  9996
2 42010  97.4871 316.6913 0006196 268.6363  91.4163 15.22998172 31060
FLOCK 3P-16             
1 42011U 17008BR  17255.58124706  .00002674  00000-0  11659-3 0  9991
2 42011  97.4873 316.7776 0005900 269.1893  90.8667 15.23042282 31017
FLOCK 3P-14             
1 42012U 17008BS  17255.58696832  .00004137  00000-0  17870-3 0  9993
2 42012  97.4877 316.7779 0006104 270.7142  89.3395 15.23044965 31636
FLOCK 3P-53             
1 42013U 17008BT  17255.52562101  .00005831  00000-0  25076-3 0  9998
2 42013  97.4868 316.6873 0005905 269.7655  90.2905 15.23018365 31628
FLOCK 3P-54             
1 42014U 17008BU  17255.58820402  .00003079  00000-0  13395-3 0  9999
2 42014  97.4875 316.7668 0005852 270.4382  89.6184 15.23006209 31846
PEASSS                  
1 42015U 17008BV  17255.56561297  .00002573  00000-0  11210-3 0  9994
2 42015  97.4864 316.7838 0005040 274.8240  85.2421 15.23109320 31646
AL-FARABI 1             
1 42016U 17008BW  17255.55056993  .00003175  00000-0  13682-3 0  9990
2 42016  97.4868 316.8110 0004948 275.2941  84.7731 15.23306526 31762
NAYIF-1 (EO-88)         
1 42017U 17008BX  17255.54853924  .00003082  00000-0  13284-3 0  9994
2 42017  97.4868 316.8123 0004922 275.7925  84.2751 15.23323151 31788
FLOCK 3P-23             
1 42018U 17008BY  17255.58619273  .00006191  00000-0  26611-3 0  9998
2 42018  97.4868 316.6116 0007407 237.8169 122.2349 15.23000640 30600
FLOCK 3P-76             
1 42019U 17008BZ  17255.55749959  .00004636  00000-0  20001-3 0  9990
2 42019  97.4901 316.7434 0007000 245.6040 114.4466 15.23015695 31663
FLOCK 3P-69             
1 42020U 17008CA  17255.55567040  .00004282  00000-0  18497-3 0  9994
2 42020  97.4902 316.7450 0006878 244.0450 116.0078 15.23019924 30557
FLOCK 3P-84             
1 42021U 17008CB  17255.56413802  .00005756  00000-0  24744-3 0  9991
2 42021  97.4895 316.7228 0007260 244.2083 115.8405 15.23034643 31672
FLOCK 3P-59             
1 42022U 17008CC  17255.56537478  .00004429  00000-0  19157-3 0  9996
2 42022  97.4877 316.6630 0006768 243.8608 116.1932 15.22956730 30698
FLOCK 3P-32             
1 42023U 17008CD  17255.56806592  .00002582  00000-0  11288-3 0  9998
2 42023  97.4879 316.6618 0006725 238.9870 121.0706 15.22990535 31838
FLOCK 3P-71             
1 42024U 17008CE  17255.57775732  .00004003  00000-0  17410-3 0  9994
2 42024  97.4906 316.7180 0007132 243.7340 116.3164 15.22827867 30701
FLOCK 3P-77             
1 42025U 17008CF  17255.55896896  .00005573  00000-0  23965-3 0  9993
2 42025  97.4898 316.7339 0006896 246.0131 114.0384 15.23036436 31679
FLOCK 3P-80             
1 42026U 17008CG  17255.60893851  .00002716  00000-0  11834-3 0  9996
2 42026  97.4900 316.8168 0006482 246.0000 114.0558 15.23055496 29825
FLOCK 3P-66             
1 42027U 17008CH  17255.54763161  .00005593  00000-0  24066-3 0  9997
2 42027  97.4879 316.6904 0006804 260.7593  99.2874 15.23014395 31781
FLOCK 3P-65             
1 42028U 17008CJ  17255.54542388  .00005751  00000-0  24740-3 0  9999
2 42028  97.4880 316.6926 0006674 261.3431  98.7049 15.23010860 31681
FLOCK 3P-50             
1 42029U 17008CK  17255.54262136  .00005549  00000-0  23864-3 0  9991
2 42029  97.4881 316.7016 0006498 264.2089  95.8407 15.23038461 31008
FLOCK 3P-52             
1 42030U 17008CL  17255.60980130  .00005460  00000-0  23516-3 0  9997
2 42030  97.4879 316.7563 0006567 262.7222  97.3268 15.22996031 31785
FLOCK 3P-46             
1 42031U 17008CM  17255.67010607  .00004906  00000-0  21141-3 0  9994
2 42031  97.4865 316.8219 0006232 259.9865 100.0694 15.23029749 31824
FLOCK 3P-47             
1 42032U 17008CN  17255.60586229  .00003486  00000-0  15117-3 0  9994
2 42032  97.4877 316.7561 0006448 264.9812  95.0689 15.23024285 31663
